NORAD_CAT_ID,OBJECT_NAME,OBJECT_TYPE,EPOCH,MEAN_MOTION,ECCENTRICITY,INCLINATION,RA_OF_ASC_NODE,ARG_OF_PERICENTER,MEAN_ANOMALY,BSTAR,MEAN_MOTION_DOT,MEAN_MOTION_DDOT,TLE_LINE0,TLE_LINE1,TLE_LINE2,SEMIMAJOR_AXIS,PERIOD,APOGEE,PERIGEE,DECAYED
54799.0,STARLINK-5421,PAYLOAD,2023-06-18 09:15:37,15.0883721,0.0001035,53.2166,167.1779,85.8603,274.2508,-1.868e-06,-3.17e-06,0.0,0 STARLINK-5421,1 54799U 22175AT  23169.38584651 -.00000317  00000-0 -18680-5 0  9993,2 54799  53.2166 167.1779 0001035  85.8603 274.2508 15.08837210 27851,6917.889,95.438,540.47,539.038,0.0
54799.0,STARLINK-5421,PAYLOAD,2023-06-18 17:12:32,15.0883818,0.0001068,53.2168,165.6916,84.804,275.3074,6.6337e-06,-1.82e-06,0.0,0 STARLINK-5421,1 54799U 22175AT  23169.71704599 -.00000182  00000-0  66337-5 0  9996,2 54799  53.2168 165.6916 0001068  84.8040 275.3074 15.08838180 30063,6917.886,95.438,540.49,539.012,0.0
54799.0,STARLINK-5421,PAYLOAD,2023-06-19 09:06:23,15.08841152,0.0001066,53.2166,162.717,86.3752,273.7362,3.3e-05,2.37e-06,0.0,0 STARLINK-5421,1 54799U 22175AT  23170.37944284  .00000237  00000-0  33000-4 0  9997,2 54799  53.2166 162.7170 0001066  86.3752 273.7362 15.08841152 30162,6917.877,95.437,540.479,539.004,0.0
54799.0,STARLINK-5421,PAYLOAD,2023-06-19 17:03:19,15.08839938,0.0001067,53.2166,161.2305,85.4307,274.6807,3.7992e-05,3.17e-06,0.0,0 STARLINK-5421,1 54799U 22175AT  23170.71064326  .00000317  00000-0  37992-4 0  9998,2 54799  53.2166 161.2305 0001067  85.4307 274.6807 15.08839938 28051,6917.881,95.438,540.484,539.007,0.0
54799.0,STARLINK-5421,PAYLOAD,2023-06-20 08:57:11,15.08838053,0.0001092,53.2164,158.2572,84.1926,275.9191,3.2112e-05,2.23e-06,0.0,0 STARLINK-5421,1 54799U 22175AT  23171.37304510  .00000223  00000-0  32112-4 0  9998,2 54799  53.2164 158.2572 0001092  84.1926 275.9191 15.08838053 30311,6917.886,95.438,540.507,538.996,0.0
54799.0,STARLINK-5421,PAYLOAD,2023-06-21 02:26:25,15.08839389,0.0001111,53.2164,154.9856,86.9555,273.1565,-2.9253e-06,-3.34e-06,0.0,0 STARLINK-5421,1 54799U 22175AT  23172.10168562 -.00000334  00000-0 -29253-5 0  9993,2 54799  53.2164 154.9856 0001111  86.9555 273.1565 15.08839389 28268,6917.882,95.438,540.516,538.979,0.0
54799.0,STARLINK-5421,PAYLOAD,2023-06-21 05:37:11,15.08840915,0.0001142,53.2166,154.3905,89.7956,270.3167,1.3188e-05,-7.8e-07,0.0,0 STARLINK-5421,1 54799U 22175AT  23172.23416405 -.00000078  00000-0  13188-4 0  9992,2 54799  53.2166 154.3905 0001142  89.7956 270.3167 15.08840915 30446,6917.878,95.437,540.533,538.953,0.0
54799.0,STARLINK-5421,PAYLOAD,2023-06-22 08:38:45,15.08839422,0.0001183,53.2166,149.3361,89.6063,270.5065,2.511e-05,1.12e-06,0.0,0 STARLINK-5421,1 54799U 22175AT  23173.36024535  .00000112  00000-0  25110-4 0  9992,2 54799  53.2166 149.3361 0001183  89.6063 270.5065 15.08839422 28457,6917.882,95.438,540.566,538.929,0.0
54799.0,STARLINK-5421,PAYLOAD,2023-06-23 02:08:00,15.08833703,0.0001197,53.2165,146.0655,93.6291,266.4838,-1.1469e-05,-4.7e-06,0.0,0 STARLINK-5421,1 54799U 22175AT  23174.08889173 -.00000470  00000-0 -11469-4 0  9990,2 54799  53.2165 146.0655 0001197  93.6291 266.4838 15.08833703 28569,6917.9,95.438,540.593,538.937,0.0
54799.0,STARLINK-5421,PAYLOAD,2023-06-24 06:44:56,15.08837289,0.0001173,53.2167,140.7135,91.1467,268.966,2.4156e-05,9.7e-07,0.0,0 STARLINK-5421,1 54799U 22175AT  23175.28121293  .00000097  00000-0  24156-4 0  9995,2 54799  53.2167 140.7135 0001173  91.1467 268.9660 15.08837289 28740,6917.889,95.438,540.565,538.942,0.0
54799.0,STARLINK-5421,PAYLOAD,2023-06-25 06:35:43,15.08846761,0.0001278,53.2171,136.2523,86.8969,273.2169,8.8273e-05,1.118e-05,0.0,0 STARLINK-5421,1 54799U 22175AT  23176.27480612  .00001118  00000-0  88273-4 0  9993,2 54799  53.2171 136.2523 0001278  86.8969 273.2169 15.08846761 28894,6917.86,95.437,540.609,538.841,0.0
54799.0,STARLINK-5421,PAYLOAD,2023-06-25 14:32:39,15.08839369,0.0001376,53.2175,134.766,83.173,276.9419,2.6421e-05,1.33e-06,0.0,0 STARLINK-5421,1 54799U 22175AT  23176.60601299  .00000133  00000-0  26421-4 0  9999,2 54799  53.2175 134.7660 0001376  83.1730 276.9419 15.08839369 28948,6917.882,95.438,540.699,538.795,0.0
54799.0,STARLINK-5421,PAYLOAD,2023-06-27 06:17:17,15.08849237,0.0001253,53.2175,127.3313,93.903,266.2105,5.1701e-06,-2.06e-06,0.0,0 STARLINK-5421,1 54799U 22175AT  23178.26200811 -.00000206  00000-0  51701-5 0  9990,2 54799  53.2175 127.3313 0001253  93.9030 266.2105 15.08849237 29194,6917.852,95.437,540.584,538.85,0.0
54799.0,STARLINK-5421,PAYLOAD,2023-06-27 14:14:13,15.08839506,0.0001336,53.2175,125.8453,88.2495,271.865,-8.2343e-05,-1.598e-05,0.0,0 STARLINK-5421,1 54799U 22175AT  23178.59321692 -.00001598  00000-0 -82343-4 0  9998,2 54799  53.2175 125.8453 0001336  88.2495 271.8650 15.08839506 29247,6917.882,95.438,540.671,538.823,0.0
54799.0,STARLINK-5421,PAYLOAD,2023-06-29 02:48:05,15.08844261,0.0001219,53.2175,119.0064,84.481,275.6321,-1.7493e-06,-3.16e-06,0.0,0 STARLINK-5421,1 54799U 22175AT  23180.11673474 -.00000316  00000-0 -17493-5 0  9999,2 54799  53.2175 119.0064 0001219  84.4810 275.6321 15.08844261 29475,6917.867,95.437,540.576,538.889,0.0
54799.0,STARLINK-5421,PAYLOAD,2023-06-29 15:31:11,15.08834543,0.0001251,53.2172,116.6282,82.2629,277.8505,4.5599e-05,4.38e-06,0.0,0 STARLINK-5421,1 54799U 22175AT  23180.64665915  .00000438  00000-0  45599-4 0  9998,2 54799  53.2172 116.6282 0001251  82.2629 277.8505 15.08834543 29556,6917.897,95.438,540.627,538.897,0.0
54799.0,STARLINK-5421,PAYLOAD,2023-06-30 12:11:12,15.08836672,0.0001133,53.2176,112.762,81.6659,278.4462,1.382e-05,-6.8e-07,0.0,0 STARLINK-5421,1 54799U 22175AT  23181.50777948 -.00000068  00000-0  13820-4 0  9996,2 54799  53.2176 112.7620 0001133  81.6659 278.4462 15.08836672 29686,6917.891,95.438,540.539,538.972,0.0
54799.0,STARLINK-5421,PAYLOAD,2023-07-01 02:29:42,15.08767522,0.0001515,53.2182,110.0892,86.5853,273.5312,0.00067785,0.00010495,0.0,0 STARLINK-5421,1 54799U 22175AT  23182.10396004  .00010495  00000-0  67785-3 0  9995,2 54799  53.2182 110.0892 0001515  86.5853 273.5312 15.08767522 29776,6918.102,95.442,541.015,538.919,0.0
54799.0,STARLINK-5421,PAYLOAD,2023-07-01 04:05:04,15.08831701,0.0001111,53.2172,109.7889,87.875,272.237,-5.8365e-05,-1.216e-05,0.0,0 STARLINK-5421,1 54799U 22175AT  23182.17018828 -.00001216  00000-0 -58365-4 0  9995,2 54799  53.2172 109.7889 0001111  87.8750 272.2370 15.08831701 29780,6917.906,95.438,540.539,539.002,0.0
54799.0,STARLINK-5421,PAYLOAD,2023-07-02 02:20:27,15.08842246,0.0001081,53.2175,105.6257,83.882,276.2296,5.7481e-05,6.27e-06,0.0,0 STARLINK-5421,1 54799U 22175AT  23183.09753961  .00000627  00000-0  57481-4 0  9992,2 54799  53.2175 105.6257 0001081  83.8820 276.2296 15.08842246 29920,6917.874,95.437,540.486,538.991,0.0
54799.0,STARLINK-5421,PAYLOAD,2023-07-03 11:43:33,15.08838345,0.0001142,53.2178,99.3803,86.1395,273.9728,4.9502e-05,5e-06,0.0,0 STARLINK-5421,1 54799U 22175AT  23184.48858330  .00000500  00000-0  49502-4 0  9997,2 54799  53.2178  99.3803 0001142  86.1395 273.9728 15.08838345 30134,6917.885,95.438,540.54,538.96,0.0
54799.0,STARLINK-5421,PAYLOAD,2023-07-04 03:37:24,15.08854266,0.0001259,53.2179,96.4059,103.3687,256.7446,-5.0531e-05,-1.092e-05,0.0,0 STARLINK-5421,1 54799U 22175AT  23185.15097553 -.00001092  00000-0 -50531-4 0  9997,2 54799  53.2179  96.4059 0001259 103.3687 256.7446 15.08854266 30238,6917.837,95.437,540.573,538.831,0.0
54799.0,STARLINK-5421,PAYLOAD,2023-07-04 14:45:07,15.08833474,0.0001113,53.2176,94.3257,81.9012,278.2107,-1.9457e-05,-5.97e-06,0.0,0 STARLINK-5421,1 54799U 22175AT  23185.61466765 -.00000597  00000-0 -19457-4 0  9994,2 54799  53.2176  94.3257 0001113  81.9012 278.2107 15.08833474 30303,6917.9,95.438,540.535,538.995,0.0
54799.0,STARLINK-5421,PAYLOAD,2023-07-05 00:17:25,15.08840523,0.00012,53.2176,92.5423,88.0484,272.0645,-3.4295e-05,-8.34e-06,0.0,0 STARLINK-5421,1 54799U 22175AT  23186.01210458 -.00000834  00000-0 -34295-4 0  9996,2 54799  53.2176  92.5423 0001200  88.0484 272.0645 15.08840523 30364,6917.879,95.438,540.574,538.914,0.0
54799.0,STARLINK-5421,PAYLOAD,2023-07-06 03:18:58,15.0884327,0.0001241,53.2182,87.4852,91.4217,268.6917,5.4037e-06,-2.02e-06,0.0,0 STARLINK-5421,1 54799U 22175AT  23187.13818161 -.00000202  00000-0  54037-5 0  9990,2 54799  53.2182  87.4852 0001241  91.4217 268.6917 15.08843270 30531,6917.87,95.437,540.594,538.877,0.0
54799.0,STARLINK-5421,PAYLOAD,2023-07-06 12:51:17,15.08835582,0.0001166,53.2174,85.7022,89.1955,270.9171,4.9476e-05,5e-06,0.0,0 STARLINK-5421,1 54799U 22175AT  23187.53562477  .00000500  00000-0  49476-4 0  9990,2 54799  53.2174  85.7022 0001166  89.1955 270.9171 15.08835582 30592,6917.894,95.438,540.566,538.952,0.0
54799.0,STARLINK-5421,PAYLOAD,2023-07-07 19:03:37,15.08836356,0.0001044,53.218,80.0545,82.4788,277.6323,1.8104e-05,0.0,0.0,0 STARLINK-5421,1 54799U 22175AT  23188.79418844  .00000000  00000-0  18104-4 0  9996,2 54799  53.2180  80.0545 0001044  82.4788 277.6323 15.08836356 30786,6917.892,95.438,540.479,539.034,0.0
54799.0,STARLINK-5421,PAYLOAD,2023-07-08 18:54:25,15.08827521,0.0001141,53.218,75.5942,85.2934,274.8189,-5.0396e-05,-1.089e-05,0.0,0 STARLINK-5421,1 54799U 22175AT  23189.78779961 -.00001089  00000-0 -50396-4 0  9995,2 54799  53.2180  75.5942 0001141  85.2934 274.8189 15.08827521 30938,6917.919,95.438,540.573,538.994,0.0
54799.0,STARLINK-5421,PAYLOAD,2023-07-09 02:51:21,15.08835401,0.000124,53.2174,74.1065,86.3332,273.7802,-2.1288e-06,-3.22e-06,0.0,0 STARLINK-5421,1 54799U 22175AT  23190.11899489 -.00000322  00000-0 -21288-5 0  9990,2 54799  53.2174  74.1065 0001240  86.3332 273.7802 15.08835401 30987,6917.894,95.438,540.617,538.902,0.0
54799.0,STARLINK-5421,PAYLOAD,2023-07-09 23:31:21,15.08841187,0.0001243,53.2174,70.2401,91.6378,268.4757,8.8497e-05,1.121e-05,0.0,0 STARLINK-5421,1 54799U 22175AT  23190.98011032  .00001121  00000-0  88497-4 0  9995,2 54799  53.2174  70.2401 0001243  91.6378 268.4757 15.08841187 31114,6917.877,95.437,540.602,538.882,0.0
